{
  "type": "FeatureCollection",
  "features": [
    {
      "type": "Feature",
      "properties": {
        "norad_id": 64751,
        "name": "PROGRESS-MS 31",
        "group": "stations",
        "lat": -2.4996882786743346,
        "lon": 67.06716874702344,
        "alt_km": 416.6433022534093,
        "timestamp": "2025-12-27T13:34:48.042360+00:00",
        "meta_object_name": "PROGRESS-MS 31",
        "meta_object_id": "2025-146A",
        "meta_epoch": "2025-12-27T04:18:31.505184",
        "meta_mean_motion": 15.49864323,
        "meta_eccentricity": 0.00032283,
        "meta_inclination": 51.6319,
        "meta_ra_of_asc_node": 70.9638,
        "meta_arg_of_pericenter": 308.9173,
        "meta_mean_anomaly": 51.1527,
        "meta_ephemeris_type": 0,
        "meta_classification_type": "U",
        "meta_norad_cat_id": 64751,
        "meta_element_set_no": 999,
        "meta_rev_at_epoch": 675,
        "meta_bstar": 0.0002516974,
        "meta_mean_motion_dot": 0.00013867,
        "meta_mean_motion_ddot": 0,
        "tle_line1": "1 64751U 25146A   25361.17953131  .00013867  00000+0  25170-3 0  9990",
        "tle_line2": "2 64751  51.6319  70.9638 0003228 308.9173  51.1527 15.49864323  6753"
      },
      "geometry": {
        "type": "Point",
        "coordinates": [
          67.06716874702344,
          -2.4996882786743346
        ]
      }
    },
    {
      "type": "Feature",
      "properties": {
        "norad_id": 64786,
        "name": "TIANZHOU-9",
        "group": "stations",
        "lat": -22.286832270624966,
        "lon": -100.9957644564655,
        "alt_km": 396.02252554772076,
        "timestamp": "2025-12-27T13:34:48.042370+00:00",
        "meta_object_name": "TIANZHOU-9",
        "meta_object_id": "2025-149A",
        "meta_epoch": "2025-12-27T06:02:45.823200",
        "meta_mean_motion": 15.59750285,
        "meta_eccentricity": 0.0008745,
        "meta_inclination": 41.4675,
        "meta_ra_of_asc_node": 288.5662,
        "meta_arg_of_pericenter": 157.7703,
        "meta_mean_anomaly": 202.3516,
        "meta_ephemeris_type": 0,
        "meta_classification_type": "U",
        "meta_norad_cat_id": 64786,
        "meta_element_set_no": 999,
        "meta_rev_at_epoch": 25530,
        "meta_bstar": 0.00024488937,
        "meta_mean_motion_dot": 0.0001992,
        "meta_mean_motion_ddot": 0,
        "tle_line1": "1 64786U 25149A   25361.25191925  .00019920  00000+0  24489-3 0  9993",
        "tle_line2": "2 64786  41.4675 288.5662 0008745 157.7703 202.3516 15.59750285255302"
      },
      "geometry": {
        "type": "Point",
        "coordinates": [
          -100.9957644564655,
          -22.286832270624966
        ]
      }
    },
    {
      "type": "Feature",
      "properties": {
        "norad_id": 65077,
        "name": "CREW DRAGON 11",
        "group": "stations",
        "lat": -2.4996872657542437,
        "lon": 67.06716955037346,
        "alt_km": 416.6433021622033,
        "timestamp": "2025-12-27T13:34:48.042380+00:00",
        "meta_object_name": "CREW DRAGON 11",
        "meta_object_id": "2025-166A",
        "meta_epoch": "2025-12-27T04:18:31.505184",
        "meta_mean_motion": 15.49864323,
        "meta_eccentricity": 0.00032283,
        "meta_inclination": 51.6319,
        "meta_ra_of_asc_node": 70.9638,
        "meta_arg_of_pericenter": 308.9173,
        "meta_mean_anomaly": 51.1527,
        "meta_ephemeris_type": 0,
        "meta_classification_type": "U",
        "meta_norad_cat_id": 65077,
        "meta_element_set_no": 999,
        "meta_rev_at_epoch": 214,
        "meta_bstar": 0.0002516974,
        "meta_mean_motion_dot": 0.00013867,
        "meta_mean_motion_ddot": 0,
        "tle_line1": "1 65077U 25166A   25361.17953131  .00013867  00000+0  25170-3 0  9994",
        "tle_line2": "2 65077  51.6319  70.9638 0003228 308.9173  51.1527 15.49864323  2144"
      },
      "geometry": {
        "type": "Point",
        "coordinates": [
          67.06716955037346,
          -2.4996872657542437
        ]
      }
    },
    {
      "type": "Feature",
      "properties": {
        "norad_id": 65304,
        "name": "DRAGON CRS-33",
        "group": "stations",
        "lat": -2.4996865060639757,
        "lon": 67.06717015288613,
        "alt_km": 416.6433020937993,
        "timestamp": "2025-12-27T13:34:48.042395+00:00",
        "meta_object_name": "DRAGON CRS-33",
        "meta_object_id": "2025-186A",
        "meta_epoch": "2025-12-27T04:18:31.505184",
        "meta_mean_motion": 15.49864323,
        "meta_eccentricity": 0.00032283,
        "meta_inclination": 51.6319,
        "meta_ra_of_asc_node": 70.9638,
        "meta_arg_of_pericenter": 308.9173,
        "meta_mean_anomaly": 51.1527,
        "meta_ephemeris_type": 0,
        "meta_classification_type": "U",
        "meta_norad_cat_id": 65304,
        "meta_element_set_no": 999,
        "meta_rev_at_epoch": 11,
        "meta_bstar": 0.0002516974,
        "meta_mean_motion_dot": 0.00013867,
        "meta_mean_motion_ddot": 0,
        "tle_line1": "1 65304U 25186A   25361.17953131  .00013867  00000+0  25170-3 0  9999",
        "tle_line2": "2 65304  51.6319  70.9638 0003228 308.9173  51.1527 15.49864323   112"
      },
      "geometry": {
        "type": "Point",
        "coordinates": [
          67.06717015288613,
          -2.4996865060639757
        ]
      }
    },
    {
      "type": "Feature",
      "properties": {
        "norad_id": 65586,
        "name": "PROGRESS-MS 32",
        "group": "stations",
        "lat": -2.4996859996026126,
        "lon": 67.0671705545622,
        "alt_km": 416.64330204819817,
        "timestamp": "2025-12-27T13:34:48.042405+00:00",
        "meta_object_name": "PROGRESS-MS 32",
        "meta_object_id": "2025-204A",
        "meta_epoch": "2025-12-27T04:18:31.505184",
        "meta_mean_motion": 15.49864323,
        "meta_eccentricity": 0.00032283,
        "meta_inclination": 51.6319,
        "meta_ra_of_asc_node": 70.9638,
        "meta_arg_of_pericenter": 308.9173,
        "meta_mean_anomaly": 51.1527,
        "meta_ephemeris_type": 0,
        "meta_classification_type": "U",
        "meta_norad_cat_id": 65586,
        "meta_element_set_no": 999,
        "meta_rev_at_epoch": 27,
        "meta_bstar": 0.0002516974,
        "meta_mean_motion_dot": 0.00013867,
        "meta_mean_motion_ddot": 0,
        "tle_line1": "1 65586U 25204A   25361.17953131  .00013867  00000+0  25170-3 0  9992",
        "tle_line2": "2 65586  51.6319  70.9638 0003228 308.9173  51.1527 15.49864323   271"
      },
      "geometry": {
        "type": "Point",
        "coordinates": [
          67.0671705545622,
          -2.4996859996026126
        ]
      }
    },
    {
      "type": "Feature",
      "properties": {
        "norad_id": 65616,
        "name": "CYGNUS NG-23",
        "group": "stations",
        "lat": -2.4996854931422487,
        "lon": 67.06717095623746,
        "alt_km": 416.6433020025934,
        "timestamp": "2025-12-27T13:34:48.042415+00:00",
        "meta_object_name": "CYGNUS NG-23",
        "meta_object_id": "2025-208A",
        "meta_epoch": "2025-12-27T04:18:31.505184",
        "meta_mean_motion": 15.49864323,
        "meta_eccentricity": 0.00032283,
        "meta_inclination": 51.6319,
        "meta_ra_of_asc_node": 70.9638,
        "meta_arg_of_pericenter": 308.9173,
        "meta_mean_anomaly": 51.1527,
        "meta_ephemeris_type": 0,
        "meta_classification_type": "U",
        "meta_norad_cat_id": 65616,
        "meta_element_set_no": 999,
        "meta_rev_at_epoch": 22,
        "meta_bstar": 0.0002516974,
        "meta_mean_motion_dot": 0.00013867,
        "meta_mean_motion_ddot": 0,
        "tle_line1": "1 65616U 25208A   25361.17953131  .00013867  00000+0  25170-3 0  9990",
        "tle_line2": "2 65616  51.6319  70.9638 0003228 308.9173  51.1527 15.49864323   220"
      },
      "geometry": {
        "type": "Point",
        "coordinates": [
          67.06717095623746,
          -2.4996854931422487
        ]
      }
    },
    {
      "type": "Feature",
      "properties": {
        "norad_id": 65729,
        "name": "DRAGONFLY",
        "group": "stations",
        "lat": -29.47417088338255,
        "lon": -93.83613695694937,
        "alt_km": 346.2043983471149,
        "timestamp": "2025-12-27T13:34:48.042426+00:00",
        "meta_object_name": "DRAGONFLY",
        "meta_object_id": "1998-067XH",
        "meta_epoch": "2025-12-27T05:03:10.580832",
        "meta_mean_motion": 15.77161756,
        "meta_eccentricity": 0.00083257,
        "meta_inclination": 51.6248,
        "meta_ra_of_asc_node": 61.3905,
        "meta_arg_of_pericenter": 2.5372,
        "meta_mean_anomaly": 357.5669,
        "meta_ephemeris_type": 0,
        "meta_classification_type": "U",
        "meta_norad_cat_id": 65729,
        "meta_element_set_no": 999,
        "meta_rev_at_epoch": 1544,
        "meta_bstar": 0.0013635881,
        "meta_mean_motion_dot": 0.00233999,
        "meta_mean_motion_ddot": 0,
        "tle_line1": "1 65729U 98067XH  25361.21053913  .00233999  00000+0  13636-2 0  9995",
        "tle_line2": "2 65729  51.6248  61.3905 0008325   2.5372 357.5669 15.77161756 15449"
      },
      "geometry": {
        "type": "Point",
        "coordinates": [
          -93.83613695694937,
          -29.47417088338255
        ]
      }
    }
  ]
}